RESOURCESAT-2A          
1 41877U 16074A   26088.18674578  .00000129  00000+0  79176-4 0  9990
2 41877  98.7570 162.3312 0001435 340.8461  19.2662 14.21607864482933
CARTOSAT-2D             
1 41948U 17008A   26086.68583299  .00000510  00000+0  27408-4 0  9994
2 41948  97.4195 147.4754 0005431 156.1008 204.0480 15.19256667505207
SENTINEL-2B             
1 42063U 17013A   26088.20749091 -.00000104  00000+0 -23161-4 0  9996
2 42063  98.5679 164.1211 0001156  93.8026 266.3289 14.30813775473209
CARTOSAT-2E             
1 42767U 17036C   26086.70285573 -.00000078  00000+0 -49598-6 0  9999
2 42767  97.4362 147.8107 0002594 217.4798 142.6256 15.19224706485779
FORMOSAT-5              
1 42920U 17049A   26088.19067288  .00000251  00000+0  74972-4 0  9993
2 42920  98.2283 165.2731 0011001 337.7775  22.2941 14.50705832455074
SENTINEL-5P             
1 42969U 17064A   26088.12938447  .00000067  00000+0  52844-4 0  9999
2 42969  98.7908  30.8392 0001184  90.9940 269.1372 14.19503880438209
SKYSAT-C11              
1 42987U 17068A   26087.91757052  .00031934  00000+0  50100-3 0  9999
2 42987  97.4231 233.5635 0000455 153.6454 206.4822 15.53627855470762
SKYSAT-C10              
1 42988U 17068B   26088.11925387  .00013509  00000+0  42422-3 0  9997
2 42988  97.4367 224.3331 0001037 107.7774 252.3582 15.33133309470088
SKYSAT-C9               
1 42989U 17068C   26087.95638544  .00017080  00000+0  43625-3 0  9999
2 42989  97.4290 224.3715 0009730  71.0783 289.1517 15.39495883470407
SKYSAT-C8               
1 42990U 17068D   26087.88138704  .00014274  00000+0  41895-3 0  9995
2 42990  97.4383 223.5992 0001211  95.4936 264.6445 15.35265023469982
SKYSAT-C7               
1 42991U 17068E   26088.13278808  .00014729  00000+0  43249-3 0  9995
2 42991  97.4397 224.8372 0006654  44.4802 315.6975 15.35224323470082
SKYSAT-C6               
1 42992U 17068F   26088.09234998  .00012825  00000+0  40515-3 0  9991
2 42992  97.4430 225.0239 0003756  81.6929 278.4739 15.32949642470044
CARTOSAT-2F             
1 43111U 18004A   26088.18376841  .00004906  00000+0  23581-3 0  9995
2 43111  97.4122 148.9877 0001979 152.2890 207.8451 15.19276018455184
GAOFEN-1 02             
1 43259U 18031A   26088.19338044 -.00000144  00000+0 -13262-4 0  9990
2 43259  98.0608 150.9146 0001797 258.7285 101.3723 14.76434632430894
GAOFEN-1 03             
1 43260U 18031B   26088.17161579  .00000899  00000+0  13670-3 0  9994
2 43260  98.0595 150.7592 0002112 357.1617   2.9580 14.76455893430887
GAOFEN-1 04             
1 43262U 18031D   26087.60503147  .00001397  00000+0  20816-3 0  9998
2 43262  98.0609 150.3754 0001491  65.9960 294.1405 14.76474438430792
SENTINEL-3B             
1 43437U 18039A   26088.17147579  .00000152  00000+0  81034-4 0  9994
2 43437  98.6308 156.8310 0001443 117.1504 242.9823 14.26733247412716
