[{"OBJECT_NAME":"RESOURCESAT-2A","OBJECT_ID":"2016-074A","EPOCH":"2026-03-29T04:28:54.835392","MEAN_MOTION":14.21607864,"ECCENTRICITY":0.0001435,"INCLINATION":98.757,"RA_OF_ASC_NODE":162.3312,"ARG_OF_PERICENTER":340.8461,"MEAN_ANOMALY":19.2662,"EPHEMERIS_TYPE":0,"CLASSIFICATION_TYPE":"U","NORAD_CAT_ID":41877,"ELEMENT_SET_NO":999,"REV_AT_EPOCH":48293,"BSTAR":7.9176e-5,"MEAN_MOTION_DOT":1.29e-6,"MEAN_MOTION_DDOT":0},{"OBJECT_NAME":"CARTOSAT-2D","OBJECT_ID":"2017-008A","EPOCH":"2026-03-27T16:27:35.970336","MEAN_MOTION":15.19256667,"ECCENTRICITY":0.0005431,"INCLINATION":97.4195,"RA_OF_ASC_NODE":147.4754,"ARG_OF_PERICENTER":156.1008,"MEAN_ANOMALY":204.048,"EPHEMERIS_TYPE":0,"CLASSIFICATION_TYPE":"U","NORAD_CAT_ID":41948,"ELEMENT_SET_NO":999,"REV_AT_EPOCH":50520,"BSTAR":2.7408022e-5,"MEAN_MOTION_DOT":5.1e-6,"MEAN_MOTION_DDOT":0},{"OBJECT_NAME":"SENTINEL-2B","OBJECT_ID":"2017-013A","EPOCH":"2026-03-29T04:58:47.214624","MEAN_MOTION":14.30813775,"ECCENTRICITY":0.0001156,"INCLINATION":98.5679,"RA_OF_ASC_NODE":164.1211,"ARG_OF_PERICENTER":93.8026,"MEAN_ANOMALY":266.3289,"EPHEMERIS_TYPE":0,"CLASSIFICATION_TYPE":"U","NORAD_CAT_ID":42063,"ELEMENT_SET_NO":999,"REV_AT_EPOCH":47320,"BSTAR":-2.3161e-5,"MEAN_MOTION_DOT":-1.04e-6,"MEAN_MOTION_DDOT":0},{"OBJECT_NAME":"CARTOSAT-2E","OBJECT_ID":"2017-036C","EPOCH":"2026-03-27T16:52:06.735072","MEAN_MOTION":15.19224706,"ECCENTRICITY":0.00025945,"INCLINATION":97.4362,"RA_OF_ASC_NODE":147.8107,"ARG_OF_PERICENTER":217.4798,"MEAN_ANOMALY":142.6256,"EPHEMERIS_TYPE":0,"CLASSIFICATION_TYPE":"U","NORAD_CAT_ID":42767,"ELEMENT_SET_NO":999,"REV_AT_EPOCH":48577,"BSTAR":-4.95983e-7,"MEAN_MOTION_DOT":-7.8e-7,"MEAN_MOTION_DDOT":0},{"OBJECT_NAME":"FORMOSAT-5","OBJECT_ID":"2017-049A","EPOCH":"2026-03-29T04:34:34.136832","MEAN_MOTION":14.50705832,"ECCENTRICITY":0.0011001,"INCLINATION":98.2283,"RA_OF_ASC_NODE":165.2731,"ARG_OF_PERICENTER":337.7775,"MEAN_ANOMALY":22.2941,"EPHEMERIS_TYPE":0,"CLASSIFICATION_TYPE":"U","NORAD_CAT_ID":42920,"ELEMENT_SET_NO":999,"REV_AT_EPOCH":45507,"BSTAR":7.4972e-5,"MEAN_MOTION_DOT":2.51e-6,"MEAN_MOTION_DDOT":0},{"OBJECT_NAME":"SENTINEL-5P","OBJECT_ID":"2017-064A","EPOCH":"2026-03-29T03:06:18.818208","MEAN_MOTION":14.1950388,"ECCENTRICITY":0.0001184,"INCLINATION":98.7908,"RA_OF_ASC_NODE":30.8392,"ARG_OF_PERICENTER":90.994,"MEAN_ANOMALY":269.1372,"EPHEMERIS_TYPE":0,"CLASSIFICATION_TYPE":"U","NORAD_CAT_ID":42969,"ELEMENT_SET_NO":999,"REV_AT_EPOCH":43820,"BSTAR":5.2844e-5,"MEAN_MOTION_DOT":6.7e-7,"MEAN_MOTION_DDOT":0},{"OBJECT_NAME":"SKYSAT-C11","OBJECT_ID":"2017-068A","EPOCH":"2026-03-28T22:01:18.092928","MEAN_MOTION":15.53627855,"ECCENTRICITY":4.55e-5,"INCLINATION":97.4231,"RA_OF_ASC_NODE":233.5635,"ARG_OF_PERICENTER":153.6454,"MEAN_ANOMALY":206.4822,"EPHEMERIS_TYPE":0,"CLASSIFICATION_TYPE":"U","NORAD_CAT_ID":42987,"ELEMENT_SET_NO":999,"REV_AT_EPOCH":47076,"BSTAR":0.000501,"MEAN_MOTION_DOT":0.00031934,"MEAN_MOTION_DDOT":0},{"OBJECT_NAME":"SKYSAT-C10","OBJECT_ID":"2017-068B","EPOCH":"2026-03-29T02:51:43.534368","MEAN_MOTION":15.33133309,"ECCENTRICITY":0.0001037,"INCLINATION":97.4367,"RA_OF_ASC_NODE":224.3331,"ARG_OF_PERICENTER":107.7774,"MEAN_ANOMALY":252.3582,"EPHEMERIS_TYPE":0,"CLASSIFICATION_TYPE":"U","NORAD_CAT_ID":42988,"ELEMENT_SET_NO":999,"REV_AT_EPOCH":47008,"BSTAR":0.00042422,"MEAN_MOTION_DOT":0.00013509,"MEAN_MOTION_DDOT":0},{"OBJECT_NAME":"SKYSAT-C9","OBJECT_ID":"2017-068C","EPOCH":"2026-03-28T22:57:11.702016","MEAN_MOTION":15.39495883,"ECCENTRICITY":0.000973,"INCLINATION":97.429,"RA_OF_ASC_NODE":224.3715,"ARG_OF_PERICENTER":71.0783,"MEAN_ANOMALY":289.1517,"EPHEMERIS_TYPE":0,"CLASSIFICATION_TYPE":"U","NORAD_CAT_ID":42989,"ELEMENT_SET_NO":999,"REV_AT_EPOCH":47040,"BSTAR":0.00043625,"MEAN_MOTION_DOT":0.0001708,"MEAN_MOTION_DDOT":0},{"OBJECT_NAME":"SKYSAT-C8","OBJECT_ID":"2017-068D","EPOCH":"2026-03-28T21:09:11.840256","MEAN_MOTION":15.35265023,"ECCENTRICITY":0.00012115,"INCLINATION":97.4383,"RA_OF_ASC_NODE":223.5992,"ARG_OF_PERICENTER":95.4936,"MEAN_ANOMALY":264.6445,"EPHEMERIS_TYPE":0,"CLASSIFICATION_TYPE":"U","NORAD_CAT_ID":42990,"ELEMENT_SET_NO":999,"REV_AT_EPOCH":46998,"BSTAR":0.00041894655,"MEAN_MOTION_DOT":0.00014274,"MEAN_MOTION_DDOT":0},{"OBJECT_NAME":"SKYSAT-C7","OBJECT_ID":"2017-068E","EPOCH":"2026-03-29T03:11:12.890112","MEAN_MOTION":15.35224323,"ECCENTRICITY":0.0006654,"INCLINATION":97.4397,"RA_OF_ASC_NODE":224.8372,"ARG_OF_PERICENTER":44.4802,"MEAN_ANOMALY":315.6975,"EPHEMERIS_TYPE":0,"CLASSIFICATION_TYPE":"U","NORAD_CAT_ID":42991,"ELEMENT_SET_NO":999,"REV_AT_EPOCH":47008,"BSTAR":0.00043249,"MEAN_MOTION_DOT":0.00014729,"MEAN_MOTION_DDOT":0},{"OBJECT_NAME":"SKYSAT-C6","OBJECT_ID":"2017-068F","EPOCH":"2026-03-29T02:12:59.038272","MEAN_MOTION":15.32949642,"ECCENTRICITY":0.0003756,"INCLINATION":97.443,"RA_OF_ASC_NODE":225.0239,"ARG_OF_PERICENTER":81.6929,"MEAN_ANOMALY":278.4739,"EPHEMERIS_TYPE":0,"CLASSIFICATION_TYPE":"U","NORAD_CAT_ID":42992,"ELEMENT_SET_NO":999,"REV_AT_EPOCH":47004,"BSTAR":0.00040515,"MEAN_MOTION_DOT":0.00012825,"MEAN_MOTION_DDOT":0},{"OBJECT_NAME":"CARTOSAT-2F","OBJECT_ID":"2018-004A","EPOCH":"2026-03-29T04:24:37.590624","MEAN_MOTION":15.19276018,"ECCENTRICITY":0.0001979,"INCLINATION":97.4122,"RA_OF_ASC_NODE":148.9877,"ARG_OF_PERICENTER":152.289,"MEAN_ANOMALY":207.8451,"EPHEMERIS_TYPE":0,"CLASSIFICATION_TYPE":"U","NORAD_CAT_ID":43111,"ELEMENT_SET_NO":999,"REV_AT_EPOCH":45518,"BSTAR":0.00023581,"MEAN_MOTION_DOT":4.906e-5,"MEAN_MOTION_DDOT":0},{"OBJECT_NAME":"GAOFEN-1 02","OBJECT_ID":"2018-031A","EPOCH":"2026-03-29T04:38:28.070016","MEAN_MOTION":14.76434632,"ECCENTRICITY":0.0001797,"INCLINATION":98.0608,"RA_OF_ASC_NODE":150.9146,"ARG_OF_PERICENTER":258.7285,"MEAN_ANOMALY":101.3723,"EPHEMERIS_TYPE":0,"CLASSIFICATION_TYPE":"U","NORAD_CAT_ID":43259,"ELEMENT_SET_NO":999,"REV_AT_EPOCH":43089,"BSTAR":-1.3262e-5,"MEAN_MOTION_DOT":-1.44e-6,"MEAN_MOTION_DDOT":0},{"OBJECT_NAME":"GAOFEN-1 03","OBJECT_ID":"2018-031B","EPOCH":"2026-03-29T04:07:07.604256","MEAN_MOTION":14.76455893,"ECCENTRICITY":0.0002112,"INCLINATION":98.0595,"RA_OF_ASC_NODE":150.7592,"ARG_OF_PERICENTER":357.1617,"MEAN_ANOMALY":2.958,"EPHEMERIS_TYPE":0,"CLASSIFICATION_TYPE":"U","NORAD_CAT_ID":43260,"ELEMENT_SET_NO":999,"REV_AT_EPOCH":43088,"BSTAR":0.0001367,"MEAN_MOTION_DOT":8.99e-6,"MEAN_MOTION_DDOT":0},{"OBJECT_NAME":"GAOFEN-1 04","OBJECT_ID":"2018-031D","EPOCH":"2026-03-28T14:31:14.719008","MEAN_MOTION":14.76474438,"ECCENTRICITY":0.0001491,"INCLINATION":98.0609,"RA_OF_ASC_NODE":150.3754,"ARG_OF_PERICENTER":65.996,"MEAN_ANOMALY":294.1405,"EPHEMERIS_TYPE":0,"CLASSIFICATION_TYPE":"U","NORAD_CAT_ID":43262,"ELEMENT_SET_NO":999,"REV_AT_EPOCH":43079,"BSTAR":0.00020816,"MEAN_MOTION_DOT":1.397e-5,"MEAN_MOTION_DDOT":0},{"OBJECT_NAME":"SENTINEL-3B","OBJECT_ID":"2018-039A","EPOCH":"2026-03-29T04:06:55.508256","MEAN_MOTION":14.26733247,"ECCENTRICITY":0.0001443,"INCLINATION":98.6308,"RA_OF_ASC_NODE":156.831,"ARG_OF_PERICENTER":117.1504,"MEAN_ANOMALY":242.9823,"EPHEMERIS_TYPE":0,"CLASSIFICATION_TYPE":"U","NORAD_CAT_ID":43437,"ELEMENT_SET_NO":999,"REV_AT_EPOCH":41271,"BSTAR":8.1034e-5,"MEAN_MOTION_DOT":1.52e-6,"MEAN_MOTION_DDOT":0}]
